NORAD_CAT_ID,OBJECT_NAME,OBJECT_TYPE,EPOCH,MEAN_MOTION,ECCENTRICITY,INCLINATION,RA_OF_ASC_NODE,ARG_OF_PERICENTER,MEAN_ANOMALY,BSTAR,MEAN_MOTION_DOT,MEAN_MOTION_DDOT,TLE_LINE0,TLE_LINE1,TLE_LINE2,SEMIMAJOR_AXIS,PERIOD,APOGEE,PERIGEE,DECAYED
52095.0,STARLINK-3701,PAYLOAD,2022-07-23 14:00:01,15.08833911,0.0001413,53.2178,277.7539,67.032,205.1309,0.0012066,0.00018964,0.0,0 STARLINK-3701,1 52095U 22029H   22204.58335648  .00018964  00000-0  12066-2 0  9993,2 52095  53.2178 277.7539 0001413  67.0320 205.1309 15.08833911  1309,6917.899,95.438,540.741,538.7869999999998,0.0
52095.0,STARLINK-3701,PAYLOAD,2022-07-23 22:00:00,15.08853621,0.0001361,53.2179,276.2562,70.608,213.0988,-0.0022114,-0.00035323,0.0,0 STARLINK-3701,1 52095U 22029H   22204.91667824 -.00035323  00000-0 -22114-2 0  9999,2 52095  53.2179 276.2562 0001361  70.6080 213.0988 15.08853621  1306,6917.839,95.437,540.645,538.762,0.0
52095.0,STARLINK-3701,PAYLOAD,2022-07-24 06:00:00,15.08843597,0.0001426,53.2181,274.7596,76.404,218.888,0.00010251,1.344e-05,0.0,0 STARLINK-3701,1 52095U 22029H   22205.25001157  .00001344  00000-0  10251-3 0  9992,2 52095  53.2181 274.7596 0001426  76.4040 218.8880 15.08843597 20701,6917.869000000002,95.437,540.721,538.748,0.0
52095.0,STARLINK-3701,PAYLOAD,2022-07-24 14:00:01,15.08822402,0.0001549,53.2181,273.2651,66.5236,240.3674,0.002127,0.00033709,0.0,0 STARLINK-3701,1 52095U 22029H   22205.58334491  .00033709  00000-0  21270-2 0  9990,2 52095  53.2181 273.2651 0001549  66.5236 240.3674 15.08822402  1308,6917.934,95.439,540.871,538.7280000000002,0.0
52095.0,STARLINK-3701,PAYLOAD,2022-07-24 22:00:00,15.08847111,0.0001492,53.2183,271.7673,70.9906,247.4911,-0.0030041,-0.0004779,0.0,0 STARLINK-3701,1 52095U 22029H   22205.91667824 -.00047790  00000-0 -30041-2 0  9999,2 52095  53.2183 271.7673 0001492  70.9906 247.4911 15.08847111  1303,6917.859,95.437,540.756,538.692,0.0
52095.0,STARLINK-3701,PAYLOAD,2022-07-25 14:00:01,15.08806646,0.000165,53.2184,268.7763,66.6354,275.0096,0.0025767,0.00040921,0.0,0 STARLINK-3701,1 52095U 22029H   22206.58334491  .00040921  00000-0  25767-2 0  9990,2 52095  53.2184 268.7763 0001650  66.6354 275.0096 15.08806646  1304,6917.982,95.44,540.989,538.706,0.0
52095.0,STARLINK-3701,PAYLOAD,2022-07-25 22:00:00,15.08831405,0.0001530999999999,53.2184,267.2786,71.6829,281.536,-0.0003308,-5.548e-05,0.0,0 STARLINK-3701,1 52095U 22029H   22206.91667824 -.00005548  00000-0 -33080-3 0  9992,2 52095  53.2184 267.2786 0001531  71.6829 281.5360 15.08831405  1301,6917.906999999997,95.438,540.831,538.7130000000002,0.0
52095.0,STARLINK-3701,PAYLOAD,2022-07-26 14:00:01,15.08816066,0.0001619,53.2183,264.2877,66.145,310.2498,0.0026096,0.00041461,0.0,0 STARLINK-3701,1 52095U 22029H   22207.58334491  .00041461  00000-0  26096-2 0  9997,2 52095  53.2183 264.2877 0001619  66.1450 310.2498 15.08816066  1302,6917.954000000002,95.439,540.939,538.6990000000002,0.0
52095.0,STARLINK-3701,PAYLOAD,2022-07-26 22:00:00,15.088358,0.0001496999999999,53.2182,262.7898,72.6082,315.3749,0.00019129,2.757e-05,0.0,0 STARLINK-3701,1 52095U 22029H   22207.91667824  .00002757  00000-0  19129-3 0  9998,2 52095  53.2182 262.7898 0001497  72.6082 315.3749 15.08835800  1306,6917.893,95.438,540.794,538.7230000000002,0.0
52095.0,STARLINK-3701,PAYLOAD,2022-07-27 06:00:02,15.08860226,0.0001509,53.2182,261.2928,73.686,325.9468,-0.0014489,-0.00023286,0.0,0 STARLINK-3701,1 52095U 22029H   22208.25002315 -.00023286  00000-0 -14489-2 0  9999,2 52095  53.2182 261.2928 0001509  73.6860 325.9468 15.08860226 21164,6917.819,95.436,540.727,538.64,0.0
52095.0,STARLINK-3701,PAYLOAD,2022-07-27 14:00:01,15.08824041,0.0001564999999999,53.2178,259.79900000000004,66.0504,345.13199999999995,0.002651,0.00042137,0.0,0 STARLINK-3701,1 52095U 22029H   22208.58334491  .00042137  00000-0  26510-2 0  9990,2 52095  53.2178 259.7990 0001565  66.0504 345.1320 15.08824041  1303,6917.929,95.439,540.877,538.712,0.0
52095.0,STARLINK-3701,PAYLOAD,2022-07-27 22:00:00,15.08839557,0.0001446,53.2176,258.301,73.8049,348.9787,0.00076043,0.00011835,0.0,0 STARLINK-3701,1 52095U 22029H   22208.91667824  .00011835  00000-0  76043-3 0  9994,2 52095  53.2176 258.3010 0001446  73.8049 348.9787 15.08839557  1303,6917.882,95.438,540.747,538.746,0.0
52095.0,STARLINK-3701,PAYLOAD,2022-07-28 06:00:00,15.08868863,0.0001489,53.2175,256.8052,74.4452,359.932,-0.0017579999999999,-0.0002818,0.0,0 STARLINK-3701,1 52095U 22029H   22209.25001157 -.00028180  00000-0 -17580-2 0  9996,2 52095  53.2175 256.8052 0001489  74.4452 359.9320 15.08868863 21313,6917.792,95.436,540.687,538.627,0.0
52095.0,STARLINK-3701,PAYLOAD,2022-07-28 14:00:01,15.08831055,0.0001531999999999,53.217,255.3101,66.2094,19.7892,0.0026794,0.00042602,0.0,0 STARLINK-3701,1 52095U 22029H   22209.58334491  .00042602  00000-0  26794-2 0  9992,2 52095  53.2170 255.3101 0001532  66.2094  19.7892 15.08831055  1302,6917.908,95.438,540.8330000000002,538.7130000000002,0.0
52095.0,STARLINK-3701,PAYLOAD,2022-07-28 22:00:00,15.08841565,0.0001423,53.2168,253.8121,74.5213,23.0865,0.0012038,0.00018923,0.0,0 STARLINK-3701,1 52095U 22029H   22209.91667824  .00018923  00000-0  12038-2 0  9993,2 52095  53.2168 253.8121 0001423  74.5213  23.0865 15.08841565 21417,6917.876,95.437,540.725,538.756,0.0
52095.0,STARLINK-3701,PAYLOAD,2022-07-29 14:00:01,15.08848012,0.0001485,53.2162,250.821,64.939,55.8926,-0.00025325,-4.317e-05,0.0,0 STARLINK-3701,1 52095U 22029H   22210.58334491 -.00004317  00000-0 -25325-3 0  9997,2 52095  53.2162 250.8210 0001485  64.9390  55.8926 15.08848012  1305,6917.856,95.437,540.748,538.694,0.0
52095.0,STARLINK-3701,PAYLOAD,2022-07-29 22:00:00,15.08814126,0.0001308,53.2162,249.3229,72.286,60.158,0.0015201,0.0002396999999999,0.0,0 STARLINK-3701,1 52095U 22029H   22210.91667824  .00023970  00000-0  15201-2 0  9998,2 52095  53.2162 249.3229 0001308  72.2860  60.1580 15.08814126  1300,6917.959,95.439,540.729,538.92,0.0
52095.0,STARLINK-3701,PAYLOAD,2022-07-30 14:00:01,15.08814555,0.0001453999999999,53.2159,246.3318,62.1891,93.419,0.002275,0.00036079,0.0,0 STARLINK-3701,1 52095U 22029H   22211.58334491  .00036079  00000-0  22750-2 0  9994,2 52095  53.2159 246.3318 0001454  62.1891  93.4190 15.08814555  1308,6917.958000000001,95.439,540.8290000000002,538.817,0.0
52095.0,STARLINK-3701,PAYLOAD,2022-07-30 22:00:00,15.08815609,0.0001344,53.216,244.8336,70.0389,97.157,0.0018774,0.00029697,0.0,0 STARLINK-3701,1 52095U 22029H   22211.91667824  .00029697  00000-0  18774-2 0  9999,2 52095  53.2160 244.8336 0001344  70.0389  97.1570 15.08815609 21712,6917.955,95.439,540.75,538.89,0.0
52095.0,STARLINK-3701,PAYLOAD,2022-07-31 14:00:01,15.08823172,0.0001516,53.2161,241.8424,60.5382,129.829,0.0018059,0.00028557,0.0,0 STARLINK-3701,1 52095U 22029H   22212.58334491  .00028557  00000-0  18059-2 0  9994,2 52095  53.2161 241.8424 0001516  60.5382 129.8290 15.08823172 21813,6917.932,95.439,540.846,538.748,0.0
52095.0,STARLINK-3701,PAYLOAD,2022-07-31 22:00:00,15.08818598,0.0001405,53.2163,240.3441,67.9874,133.9758,0.002201,0.00034894,0.0,0 STARLINK-3701,1 52095U 22029H   22212.91667824  .00034894  00000-0  22010-2 0  9993,2 52095  53.2163 240.3441 0001405  67.9874 133.9758 15.08818598  1305,6917.946,95.439,540.783,538.839,0.0
52095.0,STARLINK-3701,PAYLOAD,2022-08-01 04:00:00,15.08855037,0.0001496999999999,53.2166,239.2222,68.9206,51.724,-0.0012552,-0.00020217,0.0,0 STARLINK-3701,1 52095U 22029H   22213.16667824 -.00020217  00000-0 -12552-2 0  9997,2 52095  53.2166 239.2222 0001497  68.9206  51.7240 15.08855037 21903,6917.834,95.437,540.735,538.664,0.0
52095.0,STARLINK-3701,PAYLOAD,2022-08-01 14:00:01,15.08834764,0.0001578,53.2166,237.353,59.5488,165.5968,0.0011518,0.00018088,0.0,0 STARLINK-3701,1 52095U 22029H   22213.58334491  .00018088  00000-0  11518-2 0  9996,2 52095  53.2166 237.3530 0001578  59.5488 165.5968 15.08834764  1309,6917.896,95.438,540.8530000000002,538.67,0.0
52095.0,STARLINK-3701,PAYLOAD,2022-08-01 22:00:00,15.08822926,0.0001465999999999,53.2169,235.8548,67.09100000000001,169.6604,0.0024539,0.00038964,0.0,0 STARLINK-3701,1 52095U 22029H   22213.91667824  .00038964  00000-0  24539-2 0  9994,2 52095  53.2169 235.8548 0001466  67.0910 169.6604 15.08822926  1303,6917.933000000001,95.439,540.812,538.783,0.0
52095.0,STARLINK-3701,PAYLOAD,2022-08-02 06:00:02,15.08858265,0.0001573,53.2172,234.3595,64.4056,183.9991,-0.0016202999999999,-0.00025995,0.0,0 STARLINK-3701,1 52095U 22029H   22214.25002315 -.00025995  00000-0 -16203-2 0  9991,2 52095  53.2172 234.3595 0001573  64.4056 183.9991 15.08858265 22063,6917.825,95.436,540.778,538.601,0.0
52095.0,STARLINK-3701,PAYLOAD,2022-08-02 14:00:01,15.08845821,0.0001614,53.2171,232.8636,59.2455,200.6997,0.00032884,4.95e-05,0.0,0 STARLINK-3701,1 52095U 22029H   22214.58334491  .00004950  00000-0  32884-3 0  9990,2 52095  53.2171 232.8636 0001614  59.2455 200.6997 15.08845821  1303,6917.863,95.437,540.844,538.611,0.0
52095.0,STARLINK-3701,PAYLOAD,2022-08-03 12:00:00,15.08802949,0.0001740999999999,53.2176,228.7488,60.8435,141.007,0.0027085,0.00043038,0.0,0 STARLINK-3701,1 52095U 22029H   22215.50001157  .00043038  00000-0  27085-2 0  9999,2 52095  53.2176 228.7488 0001741  60.8435 141.0070 15.08802949 22255,6917.994000000002,95.44,541.063,538.654,0.0
52095.0,STARLINK-3701,PAYLOAD,2022-08-03 14:00:01,15.08829049,0.0001708,53.2174,228.3744,61.4247,233.3104,-0.00038372,-6.388e-05,0.0,0 STARLINK-3701,1 52095U 22029H   22215.58334491 -.00006388  00000-0 -38372-3 0  9998,2 52095  53.2174 228.3744 0001708  61.4247 233.3104 15.08829049  1301,6917.9140000000025,95.438,540.96,538.597,0.0
52095.0,STARLINK-3701,PAYLOAD,2022-08-03 22:00:01,15.08803179,0.0001605,53.2176,226.8764,70.0459,236.3418,0.0028069,0.00044622,0.0,0 STARLINK-3701,1 52095U 22029H   22215.91668981  .00044622  00000-0  28069-2 0  9991,2 52095  53.2176 226.8764 0001605  70.0459 236.3418 15.08803179  1302,6917.993,95.44,540.9680000000002,538.748,0.0
